STARLINK-34661          
1 64927U 25157Z   25212.75002315 -.01156883  43567-3 -21213-2 0  9996
2 64927  53.1554 309.0916 0000562  48.6322  42.8256 16.00661138  1784
STARLINK-34248          
1 64928U 25157AA  25212.75002315 -.01250766  48164-3 -28627-2 0  9996
2 64928  53.1551 309.1731 0000588  53.7811 358.0913 15.96738244  2056
STARLINK-34290          
1 64929U 25157AB  25212.75002315 -.01258222  48736-3 -28647-2 0  9999
2 64929  53.1550 309.1699 0000540  53.3023   0.0473 15.96835069  2056
STARLINK-34220          
1 64930U 25157AC  25212.75002315 -.01161232  43896-3 -21215-2 0  9991
2 64930  53.1553 309.0894 0000537  42.5352  50.0030 16.00725321  1944
STARLINK-34715          
1 64931U 25157AD  25212.75002315 -.01265084  49275-3 -28639-2 0  9996
2 64931  53.1550 309.1667 0000542  52.3448   2.5804 15.96940222  2059
STARLINK-34705          
1 64932U 25158A   25212.83335648 -.01660485  76404-3 -52957-2 0  9993
2 64932  97.5992  73.8200 0001464  86.9753  93.2672 15.91190376  1967
STARLINK-34737          
1 64933U 25158B   25212.83335648 -.01651254  75674-3 -52459-2 0  9993
2 64933  97.5992  73.8203 0001429  90.8244  90.5840 15.91265326  1966
STARLINK-34775          
1 64934U 25158C   25212.83335648 -.01673155  77632-3 -52869-2 0  9999
2 64934  97.5992  73.8210 0001418  82.4801 100.3925 15.91374210  1966
STARLINK-34726          
1 64935U 25158D   25212.83335648 -.01662039  76738-3 -52303-2 0  9998
2 64935  97.5990  73.8214 0001374  87.2629  96.8317 15.91453175  1907
STARLINK-34529          
1 64936U 25158E   25212.83335648 -.01719436  81835-3 -53791-2 0  9999
2 64936  97.5992  73.8222 0001447  88.3023  97.2365 15.91576380  1968
STARLINK-34743          
1 64937U 25158F   25212.83335648 -.01737193  83496-3 -54079-2 0  9995
2 64937  97.5992  73.8229 0001506  87.4446  99.4151 15.91675163  1967
STARLINK-34730          
1 64938U 25158G   25212.83335648 -.01758043  85456-3 -54458-2 0  9992
2 64938  97.5993  73.8234 0001510  88.3046  99.9025 15.91774620  1903
STARLINK-34714          
1 64939U 25158H   25212.83335648 -.01748631  84683-3 -53917-2 0  9995
2 64939  97.5993  73.8240 0001419  87.0070 102.6115 15.91863744  1742
STARLINK-34755          
1 64940U 25158J   25212.83335648 -.01802550  89718-3 -55269-2 0  9994
2 64940  97.5994  73.8247 0001438  91.0058  99.9821 15.91980056  1900
STARLINK-34740          
1 64941U 25158K   25212.83335648 -.01804373  89971-3 -55066-2 0  9996
2 64941  97.5994  73.8252 0001427  90.7169 101.6466 15.92071696  1902
STARLINK-34742          
1 64942U 25158L   25212.83335648 -.01810975  90673-3 -55002-2 0  9993
2 64942  97.5994  73.8258 0001423  93.8888  99.8630 15.92166254  1969
STARLINK-34719          
1 64943U 25158M   25212.83335648 -.01830261  92577-3 -55315-2 0  9996
2 64943  97.5996  73.8267 0001469  82.7846 112.2777 15.92264212  1968
STARLINK-34373          
1 64944U 25158N   25212.83335648 -.01855564  95082-3 -55793-2 0  9994
2 64944  97.5994  73.8268 0001614  94.7460 101.6409 15.92366539  1908
STARLINK-34758          
1 64945U 25158P   25212.83335648 -.01893712  98886-3 -56629-2 0  9996
2 64945  97.5995  73.8274 0001411  95.6488 102.2134 15.92478056  1902
STARLINK-34753          
1 64946U 25158Q   25212.83335648 -.01877824  97418-3 -55919-2 0  9994
2 64946  97.5994  73.8280 0001480  87.4724 111.6292 15.92557106  1900
STARLINK-34747          
1 64947U 25158R   25212.83335648 -.01921830  10186-2 -56914-2 0  9994
2 64947  97.5995  73.8287 0001421  89.1165 111.4279 15.92669576  1966
STARLINK-34630          
1 64948U 25158S   25212.83335648 -.01914326  10121-2 -56426-2 0  9994
2 64948  97.5993  73.8291 0001447  85.8685 116.0812 15.92759419  1902
STARLINK-34689          
1 64949U 25158T   25212.83335648 -.01942132  10409-2 -56955-2 0  9997
2 64949  97.5996  73.8299 0001579  97.0593 106.2106 15.92860629  1962
STARLINK-34586          
1 64950U 25158U   25212.83335648 -.01958428  10584-2 -57159-2 0  9995
2 64950  97.5996  73.8304 0001461  89.4543 115.1508 15.92955046  1908
STARLINK-34738          
1 64951U 25158V   25212.83335648 -.01975592  10771-2 -57360-2 0  9999
2 64951  97.5995  73.8310 0001452  95.4232 110.6069 15.93057517  1906
STARLINK-34744          
1 64952U 25158W   25212.83335648 -.02003535  11083-2 -57599-2 0  9991
2 64952  97.5996  73.8322 0001509  93.5813 115.1836 15.93250625  1905
STARLINK-34701          
1 64953U 25158X   25212.83335648 -.01972802  10752-2 -57023-2 0  9997
2 64953  97.5998  73.8320 0001496  93.2461 114.1048 15.93143255  1901
STARLINK-34761          
1 64954U 25158Y   25212.83335648 -.02031471  11389-2 -58082-2 0  9990
2 64954  97.6000  73.8331 0001490  92.0077 118.2216 15.93359232  1909
STARLINK-34732          
1 64955U 25158Z   25212.83335648 -.02025313  11335-2 -57626-2 0  9993
2 64955  97.5999  73.8337 0001447  96.2207 115.4234 15.93451595  1909
HULIANWANG DIGUI 5A     
1 64956U 25159A   25212.85336610  .00000137  00000+0  13988-3 0  9998
2 64956  86.4949  31.3732 0008556 205.5434 154.5303 13.68676465   584
HULIANWANG DIGUI 5B     
1 64957U 25159B   25212.85305210  .00000023  00000+0  76626-5 0  9995
2 64957  86.4969  31.3757 0008111 204.2679 155.8100 13.68769506   586
HULIANWANG DIGUI 5C     
1 64958U 25159C   25212.85247547  .00000061  00000+0  51819-4 0  9992
2 64958  86.4911  31.3668 0007751 199.8331 160.2528 13.68945297   585
HULIANWANG DIGUI 5D     
1 64959U 25159D   25212.85216911  .00000026  00000+0  11017-4 0  9991
2 64959  86.4969  31.3752 0007219 193.5877 166.5089 13.69044460   582
HULIANWANG DIGUI 5E     
1 64960U 25159E   25210.76102486  .00000017  00000+0  00000+0 0  9997
2 64960  86.4948  32.1416 0007346 198.6589 302.2178 13.69162668   303
CZ-6A R/B               
1 64961U 25159F   25212.55873817 -.00000028  00000+0 -34102-4 0  9999
2 64961  86.5043  31.4239 0104709 103.0075 258.2815 13.94023321   552
KUNPENG-03              
1 64962U 25160A   25212.84965060  .00016774  00000+0  75888-3 0  9994
2 64962  97.3988 287.4726 0010453 258.3895 101.6168 15.20933596   402
SQX-1 R/B               
1 64963U 25160B   25212.84675041  .00060247  31323-5  36367-3 0  9993
2 64963  97.4406 287.6433 0169423 345.0262  14.6011 15.60304020   420
HULIANWANG DIGUI 6A     
1 65043U 25162A   25212.43723605 -.00000152  00000+0  00000+0 0  9993
2 65043  50.0011  10.6873 0008297 271.7620  88.2092 14.06154024   155
HULIANWANG DIGUI 6B     
1 65044U 25162B   25212.43723605 -.00000152  00000+0  00000+0 0  9994
2 65044  50.0031  10.6891 0006958 266.9781  93.1790 14.06206107   165
HULIANWANG DIGUI 6C     
1 65045U 25162C   25212.43723605 -.00000152  00000+0  00000+0 0  9995
2 65045  49.9997  10.6856 0007553 274.9795  85.5606 14.06299105   151
HULIANWANG DIGUI 6D     
1 65046U 25162D   25212.86342418 -.00000582  00000+0 -25902-3 0  9992
2 65046  50.0025   8.9429 0006220 273.3316  86.6878 14.06371875   221
HULIANWANG DIGUI 6E     
1 65047U 25162E   25212.43723605 -.00000152  00000+0  00000+0 0  9997
2 65047  50.0034  10.6880 0007816 279.1142  81.9470 14.06429102   151
HULIANWANG DIGUI 6F     
1 65048U 25162F   25212.43723605 -.00000153  00000+0  00000+0 0  9999
2 65048  50.0057  10.6900 0005819 279.7742  81.7866 14.06561207   153
HULIANWANG DIGUI 6G     
1 65049U 25162G   25212.43723605 -.00000153  00000+0  00000+0 0  9990
2 65049  50.0092  10.6925 0007046 286.7731  74.9386 14.06599078   158
HULIANWANG DIGUI 6H     
1 65050U 25162H   25211.89249517 -.00000153  00000+0  00000+0 0  9996
2 65050  50.0065  12.9147 0007493 278.6827 202.9834 14.06715927    89
HULIANWANG DIGUI 6J     
1 65051U 25162J   25212.43723605 -.00000153  00000+0  00000+0 0  9993
2 65051  50.0068  10.6882 0005828 288.4153  73.8666 14.06744364   158
CZ-8A R/B               
1 65052U 25162K   25212.83809765 -.00002708  00000+0 -89571-3 0  9993
2 65052  50.0050   8.8255 0118960  88.4290 273.0249 14.30550840   225
NISAR                   
1 65053U 25163A   25212.86566629  .00000397  00000+0  12404-3 0  9998
2 65053  98.4438  39.7354 0012242 267.2784  92.7006 14.45882151   198
GSLV R/B                
1 65054U 25163B   25211.98855544 -.00000045  00000+0  00000+0 0  9994
2 65054  98.4323  38.8602 0011736 308.3514 171.4272 14.47476241    60
PRSS-1                  
1 65055U 25164A   25212.54116272 -.00000179  00000+0  00000+0 0  9995
2 65055  41.1306 295.5376 0007944 247.8580 199.0128 15.05679442    40
